start=new Date('2023-03-03T00:00:00.000Z').valueOf();
sats=[{"CLASSIFICATION_TYPE":"U","CENTER_NAME":"EARTH","ARG_OF_PERICENTER":"84.9260","PERIAPSIS":"538.606","TLE_LINE2":"2 52470  53.2155 333.1093 0001541  84.9260 275.1908 15.08863942 45651","LAUNCH_DATE":"2022-05-06","RCS_SIZE":"LARGE","OBJECT_NAME":"STARLINK-3859","INCLINATION":"53.2155","TIME_SYSTEM":"UTC","REV_AT_EPOCH":"4565","ECCENTRICITY":"0.00015410","MEAN_MOTION_DDOT":"0.0000000000000","FILE":"3849487","ELEMENT_SET_NO":"999","MEAN_ELEMENT_THEORY":"SGP4","NORAD_CAT_ID":"52470","APOAPSIS":"540.738","COUNTRY_CODE":"US","SEMIMAJOR_AXIS":"6917.807","RA_OF_ASC_NODE":"333.1093","EPOCH":"2023-03-02T03:35:24.774720","MEAN_ANOMALY":"275.1908","OBJECT_ID":"2022-049V","GP_ID":"227361541","DECAY_DATE":null,"MEAN_MOTION":"15.08863942","REF_FRAME":"TEME","MEAN_MOTION_DOT":"0.00032746","EPHEMERIS_TYPE":"0","OBJECT_TYPE":"PAYLOAD","TLE_LINE1":"1 52470U 22049V   23061.14959230  .00032746  00000-0  20647-2 0  9993","SITE":"AFETR","BSTAR":"0.00206470000000","PERIOD":"95.436"},{"CENTER_NAME":"EARTH","ARG_OF_PERICENTER":"65.8446","CLASSIFICATION_TYPE":"U","MEAN_MOTION_DDOT":"0.0000000000000","ECCENTRICITY":"0.00011670","REV_AT_EPOCH":"4574","RCS_SIZE":"LARGE","TIME_SYSTEM":"UTC","INCLINATION":"53.2173","OBJECT_NAME":"STARLINK-3862","TLE_LINE2":"2 52471  53.2173 330.3880 0001167  65.8446 294.2668 15.08746146 45744","LAUNCH_DATE":"2022-05-06","PERIAPSIS":"539.225","FILE":"3849487","NORAD_CAT_ID":"52471","MEAN_ELEMENT_THEORY":"SGP4","ELEMENT_SET_NO":"999","MEAN_MOTION":"15.08746146","DECAY_DATE":null,"GP_ID":"227362786","OBJECT_ID":"2022-049W","MEAN_ANOMALY":"294.2668","EPOCH":"2023-03-02T18:11:10.235904","RA_OF_ASC_NODE":"330.3880","COUNTRY_CODE":"US","SEMIMAJOR_AXIS":"6918.167","APOAPSIS":"540.840","EPHEMERIS_TYPE":"0","MEAN_MOTION_DOT":"0.00081278","REF_FRAME":"TEME","BSTAR":"0.00507960000000","PERIOD":"95.443","SITE":"AFETR","TLE_LINE1":"1 52471U 22049W   23061.75775736  .00081278  00000-0  50796-2 0  9990","OBJECT_TYPE":"PAYLOAD"},{"CLASSIFICATION_TYPE":"U","CENTER_NAME":"EARTH","ARG_OF_PERICENTER":"72.4356","PERIAPSIS":"539.234","TLE_LINE2":"2 52472  53.2159 333.1263 0000643  72.4356 287.6707 15.08861942 45659","LAUNCH_DATE":"2022-05-06","TIME_SYSTEM":"UTC","RCS_SIZE":"LARGE","INCLINATION":"53.2159","OBJECT_NAME":"STARLINK-3881","REV_AT_EPOCH":"4565","ECCENTRICITY":"0.00006430","MEAN_MOTION_DDOT":"0.0000000000000","FILE":"3849487","ELEMENT_SET_NO":"999","MEAN_ELEMENT_THEORY":"SGP4","NORAD_CAT_ID":"52472","APOAPSIS":"540.123","COUNTRY_CODE":"US","SEMIMAJOR_AXIS":"6917.813","RA_OF_ASC_NODE":"333.1263","EPOCH":"2023-03-02T03:30:06.717312","MEAN_ANOMALY":"287.6707","OBJECT_ID":"2022-049X","GP_ID":"227362543","DECAY_DATE":null,"MEAN_MOTION":"15.08861942","REF_FRAME":"TEME","MEAN_MOTION_DOT":"0.00031049","EPHEMERIS_TYPE":"0","OBJECT_TYPE":"PAYLOAD","TLE_LINE1":"1 52472U 22049X   23061.14591108  .00031049  00000-0  19592-2 0  9993","SITE":"AFETR","BSTAR":"0.00195920000000","PERIOD":"95.436"},{"EPHEMERIS_TYPE":"0","MEAN_MOTION_DOT":"0.00025382","REF_FRAME":"TEME","TLE_LINE1":"1 52473U 22049Y   23061.74942669  .00025382  00000-0  16055-2 0  9996","SITE":"AFETR","PERIOD":"95.435","BSTAR":"0.00160550000000","OBJECT_TYPE":"PAYLOAD","GP_ID":"227361785","DECAY_DATE":null,"MEAN_MOTION":"15.08876691","MEAN_ANOMALY":"269.8160","OBJECT_ID":"2022-049Y","RA_OF_ASC_NODE":"330.4140","EPOCH":"2023-03-02T17:59:10.466016","APOAPSIS":"540.711","COUNTRY_CODE":"US","SEMIMAJOR_AXIS":"6917.768","FILE":"3849487","NORAD_CAT_ID":"52473","MEAN_ELEMENT_THEORY":"SGP4","ELEMENT_SET_NO":"999","CLASSIFICATION_TYPE":"U","CENTER_NAME":"EARTH","ARG_OF_PERICENTER":"90.3010","ECCENTRICITY":"0.00015580","MEAN_MOTION_DDOT":"0.0000000000000","INCLINATION":"53.2143","RCS_SIZE":"LARGE","TIME_SYSTEM":"UTC","OBJECT_NAME":"STARLINK-3879","REV_AT_EPOCH":"4574","TLE_LINE2":"2 52473  53.2143 330.4140 0001558  90.3010 269.8160 15.08876691 45741","LAUNCH_DATE":"2022-05-06","PERIAPSIS":"538.555"},{"EPHEMERIS_TYPE":"0","REF_FRAME":"TEME","MEAN_MOTION_DOT":"0.00014535","BSTAR":"0.00092826000000","PERIOD":"95.435","SITE":"AFETR","TLE_LINE1":"1 52474U 22049Z   23061.76137401  .00014535  00000-0  92826-3 0  9998","OBJECT_TYPE":"PAYLOAD","OBJECT_ID":"2022-049Z","MEAN_ANOMALY":"267.9066","MEAN_MOTION":"15.08885531","DECAY_DATE":null,"GP_ID":"227362035","SEMIMAJOR_AXIS":"6917.741","COUNTRY_CODE":"US","APOAPSIS":"540.147","EPOCH":"2023-03-02T18:16:22.714464","RA_OF_ASC_NODE":"320.3617","FILE":"3849487","MEAN_ELEMENT_THEORY":"SGP4","NORAD_CAT_ID":"52474","ELEMENT_SET_NO":"999","CENTER_NAME":"EARTH","ARG_OF_PERICENTER":"92.2016","CLASSIFICATION_TYPE":"U","REV_AT_EPOCH":"4588","INCLINATION":"53.2165","RCS_SIZE":"LARGE","OBJECT_NAME":"STARLINK-3855","TIME_SYSTEM":"UTC","MEAN_MOTION_DDOT":"0.0000000000000","ECCENTRICITY":"0.00007820","PERIAPSIS":"539.065","LAUNCH_DATE":"2022-05-06","TLE_LINE2":"2 52474  53.2165 320.3617 0000782  92.2016 267.9066 15.08885531 45880"},{"ECCENTRICITY":"0.00015240","MEAN_MOTION_DDOT":"0.0000000000000","RCS_SIZE":"LARGE","INCLINATION":"53.2172","TIME_SYSTEM":"UTC","OBJECT_NAME":"STARLINK-3882","REV_AT_EPOCH":"4574","LAUNCH_DATE":"2022-05-06","TLE_LINE2":"2 52475  53.2172 330.4426 0001524 126.4015 233.7118 15.08842147 45743","PERIAPSIS":"538.685","CLASSIFICATION_TYPE":"U","CENTER_NAME":"EARTH","ARG_OF_PERICENTER":"126.4015","NORAD_CAT_ID":"52475","MEAN_ELEMENT_THEORY":"SGP4","ELEMENT_SET_NO":"999","FILE":"3849487","GP_ID":"227362293","DECAY_DATE":null,"MEAN_MOTION":"15.08842147","MEAN_ANOMALY":"233.7118","OBJECT_ID":"2022-049AA","RA_OF_ASC_NODE":"330.4426","EPOCH":"2023-03-02T17:49:57.511200","APOAPSIS":"540.793","COUNTRY_CODE":"US","SEMIMAJOR_AXIS":"6917.874","SITE":"AFETR","TLE_LINE1":"1 52475U 22049AA  23061.74302675  .00010401  00000-0  67061-3 0  9995","PERIOD":"95.437","BSTAR":"0.00067061000000","OBJECT_TYPE":"PAYLOAD","EPHEMERIS_TYPE":"0","MEAN_MOTION_DOT":"0.00010401","REF_FRAME":"TEME"},{"MEAN_MOTION":"15.08849978","DECAY_DATE":null,"GP_ID":"227363036","OBJECT_ID":"2022-049AB","MEAN_ANOMALY":"222.9617","EPOCH":"2023-03-02T03:54:00.765504","RA_OF_ASC_NODE":"323.0588","COUNTRY_CODE":"US","SEMIMAJOR_AXIS":"6917.850","APOAPSIS":"540.355","BSTAR":"0.00144640000000","PERIOD":"95.437","SITE":"AFETR","TLE_LINE1":"1 52476U 22049AB  23061.16250886  .00022813  00000-0  14464-2 0  9996","OBJECT_TYPE":"PAYLOAD","EPHEMERIS_TYPE":"0","MEAN_MOTION_DOT":"0.00022813","REF_FRAME":"TEME","MEAN_MOTION_DDOT":"0.0000000000000","ECCENTRICITY":"0.00009250","REV_AT_EPOCH":"4703","RCS_SIZE":"LARGE","INCLINATION":"53.2162","TIME_SYSTEM":"UTC","OBJECT_NAME":"STARLINK-3835","TLE_LINE2":"2 52476  53.2162 323.0588 0000925 137.1447 222.9617 15.08849978 47039","LAUNCH_DATE":"2022-05-06","PERIAPSIS":"539.075","ARG_OF_PERICENTER":"137.1447","CENTER_NAME":"EARTH","CLASSIFICATION_TYPE":"U","NORAD_CAT_ID":"52476","MEAN_ELEMENT_THEORY":"SGP4","ELEMENT_SET_NO":"999","FILE":"3849487"},{"MEAN_ANOMALY":"230.3701","OBJECT_ID":"2022-049AC","GP_ID":"227361292","DECAY_DATE":null,"MEAN_MOTION":"15.08857550","APOAPSIS":"540.465","COUNTRY_CODE":"US","SEMIMAJOR_AXIS":"6917.827","RA_OF_ASC_NODE":"323.0233","EPOCH":"2023-03-02T04:03:14.091840","TLE_LINE1":"1 52477U 22049AC  23061.16891310  .00025867  00000-0  16366-2 0  9995","SITE":"AFETR","BSTAR":"0.00163660000000","PERIOD":"95.436","OBJECT_TYPE":"PAYLOAD","EPHEMERIS_TYPE":"0","REF_FRAME":"TEME","MEAN_MOTION_DOT":"0.00025867","OBJECT_NAME":"STARLINK-3860","RCS_SIZE":"LARGE","INCLINATION":"53.2157","TIME_SYSTEM":"UTC","REV_AT_EPOCH":"4703","ECCENTRICITY":"0.00011180","MEAN_MOTION_DDOT":"0.0000000000000","PERIAPSIS":"538.918","TLE_LINE2":"2 52477  53.2157 323.0233 0001118 129.7390 230.3701 15.08857550 47032","LAUNCH_DATE":"2022-05-06","CLASSIFICATION_TYPE":"U","ARG_OF_PERICENTER":"129.7390","CENTER_NAME":"EARTH","MEAN_ELEMENT_THEORY":"SGP4","NORAD_CAT_ID":"52477","ELEMENT_SET_NO":"999","FILE":"3849487"},{"CLASSIFICATION_TYPE":"U","ARG_OF_PERICENTER":"62.4770","CENTER_NAME":"EARTH","PERIAPSIS":"538.147","LAUNCH_DATE":"2022-05-06","TLE_LINE2":"2 52478  53.2157 330.4797 0002283  62.4770 297.6454 15.08846247 46984","RCS_SIZE":"LARGE","INCLINATION":"53.2157","TIME_SYSTEM":"UTC","OBJECT_NAME":"STARLINK-3825","REV_AT_EPOCH":"4698","ECCENTRICITY":"0.00022830","MEAN_MOTION_DDOT":"0.0000000000000","FILE":"3849487","ELEMENT_SET_NO":"999","MEAN_ELEMENT_THEORY":"SGP4","NORAD_CAT_ID":"52478","APOAPSIS":"541.306","SEMIMAJOR_AXIS":"6917.861","COUNTRY_CODE":"US","RA_OF_ASC_NODE":"330.4797","EPOCH":"2023-03-02T17:37:57.798336","MEAN_ANOMALY":"297.6454","OBJECT_ID":"2022-049AD","GP_ID":"227361542","DECAY_DATE":null,"MEAN_MOTION":"15.08846247","REF_FRAME":"TEME","MEAN_MOTION_DOT":"0.00015685","EPHEMERIS_TYPE":"0","OBJECT_TYPE":"PAYLOAD","TLE_LINE1":"1 52478U 22049AD  23061.73469674  .00015685  00000-0  10012-2 0  9992","SITE":"AFETR","PERIOD":"95.437","BSTAR":"0.00100120000000"},{"OBJECT_TYPE":"PAYLOAD","BSTAR":"0.00033485000000","PERIOD":"95.439","SITE":"AFETR","TLE_LINE1":"1 52479U 22049AE  23061.75033776  .00005042  00000-0  33485-3 0  9991","MEAN_MOTION_DOT":"0.00005042","REF_FRAME":"TEME","EPHEMERIS_TYPE":"0","EPOCH":"2023-03-02T18:00:29.182464","RA_OF_ASC_NODE":"320.4105","SEMIMAJOR_AXIS":"6917.948","COUNTRY_CODE":"US","APOAPSIS":"540.518","MEAN_MOTION":"15.08818041","GP_ID":"227362787","DECAY_DATE":null,"OBJECT_ID":"2022-049AE","MEAN_ANOMALY":"309.3700","ELEMENT_SET_NO":"999","NORAD_CAT_ID":"52479","MEAN_ELEMENT_THEORY":"SGP4","FILE":"3849487","LAUNCH_DATE":"2022-05-06","TLE_LINE2":"2 52479  53.2170 320.4105 0001020  50.7382 309.3700 15.08818041 47122","PERIAPSIS":"539.107","MEAN_MOTION_DDOT":"0.0000000000000","ECCENTRICITY":"0.00010200","REV_AT_EPOCH":"4712","RCS_SIZE":"LARGE","INCLINATION":"53.2170","TIME_SYSTEM":"UTC","OBJECT_NAME":"STARLINK-3878","ARG_OF_PERICENTER":"50.7382","CENTER_NAME":"EARTH","CLASSIFICATION_TYPE":"U"}];
